{"type":"FeatureCollection","features":[{"type":"Feature","properties":{"amenity":"school"},"geometry":{"type":"Point","coordinates":[-99.1642324,19.3978111]}},{"type":"Feature","properties":{"amenity":"school"},"geometry":{"type":"Point","coordinates":[-99.1654239,19.3959029]}},{"type":"Feature","properties":{"addr:housenumber":"31","addr:postcode":"06700","addr:street":"Eje 2 Sur (Quer\u00e9taro)","amenity":"school","name":"Escuela Comercial C\u00e1mara de Comercio"},"geometry":{"type":"Point","coordinates":[-99.1559949,19.415535]}},{"type":"Feature","properties":{"addr:housenumber":"1401","addr:postcode":"03100","addr:street":"Heriberto Fr\u00edas","amenity":"school","name":"Escuela Tom\u00e1s Alva Edison Preparatoria"},"geometry":{"type":"Point","coordinates":[-99.1640997,19.3748106]}},{"type":"Feature","properties":{"amenity":"school"},"geometry":{"type":"Point","coordinates":[-99.1517136,19.3801886]}},{"type":"Feature","properties":{"amenity":"school"},"geometry":{"type":"Point","coordinates":[-99.1454889,19.4015476]}},{"type":"Feature","properties":{"amenity":"school"},"geometry":{"type":"Point","coordinates":[-99.1469467,19.4007812]}},{"type":"Feature","properties":{"amenity":"school","name":"Entrenamiento Aereo Especializado"},"geometry":{"type":"Point","coordinates":[-99.1503762,19.4014662]}},{"type":"Feature","properties":{"amenity":"school","name":"Escuela de Manejo Vargas"},"geometry":{"type":"Point","coordinates":[-99.1504077,19.4016143]}},{"type":"Feature","properties":{"amenity":"school"},"geometry":{"type":"Point","coordinates":[-99.1457066,19.3993443]}},{"type":"Feature","properties":{"amenity":"school"},"geometry":{"type":"Point","coordinates":[-99.1511549,19.3970012]}},{"type":"Feature","properties":{"amenity":"school"},"geometry":{"type":"Point","coordinates":[-99.1490855,19.3901018]}},{"type":"Feature","properties":{"amenity":"school"},"geometry":{"type":"Point","coordinates":[-99.1478195,19.3864402]}},{"type":"Feature","properties":{"amenity":"school"},"geometry":{"type":"Point","coordinates":[-99.1471243,19.390796]}},{"type":"Feature","properties":{"amenity":"school","name":"UNIVDEP","phone":"+5215556888315","website":"https:\/\/www.univdep.edu.mx\/"},"geometry":{"type":"Point","coordinates":[-99.1631359,19.3746067]}},{"type":"Feature","properties":{"addr:city":"mexico city","addr:housenumber":"605","addr:postcode":"03100","addr:street":"Amores","amenity":"school","name":"Centro Educativo Jeeb","phone":"55 5575 7913","website":"https:\/\/jeeb.edu.mx\/"},"geometry":{"type":"Point","coordinates":[-99.1650643,19.3899337]}},{"type":"Feature","properties":{"amenity":"school","name":"Secundaria Diurna - Mar\u00eda Enriqueta Camarillo","phone":"55 3601 7100"},"geometry":{"type":"Point","coordinates":[-99.1561508,19.400023]}},{"type":"Feature","properties":{"addr:housenumber":"117","addr:postcode":"06600","addr:street":"Bucareli","amenity":"school","name":"Centro de Estudios Tecnol\u00f3gicos, Industriales y de Servicios N\u00daM: 11 (CETIS 11)","name:es":"Escuela Nacional de Artes Gr\u00e1ficas (CETIS 11)","phone":"55922250","website":"http:\/\/www.cetis011.edu.mx"},"geometry":{"type":"Point","coordinates":[-99.1524806,19.4292189]}},{"type":"Feature","properties":{"amenity":"school","name":"Escuela Primaria Pedro Ma. Anaya","opening_hours":"Mo-Fr 08:00-16:00"},"geometry":{"type":"Point","coordinates":[-99.1421094,19.3745882]}},{"type":"Feature","properties":{"addr:city":"Ciudad de M\u00e9xico","addr:housenumber":"614","addr:postcode":"03400","addr:street":"Calle 5 de Febrero","amenity":"school","name":"Instituto Santa Cruz"},"geometry":{"type":"Point","coordinates":[-99.1388851,19.3983749]}},{"type":"Feature","properties":{"amenity":"school","name":"Escuela Internacional de Gastronom\u00eda, SC"},"geometry":{"type":"Point","coordinates":[-99.1641584,19.4185044]}},{"type":"Feature","properties":{"amenity":"school","name":"Escuela Primaria Las Tres Americas"},"geometry":{"type":"Point","coordinates":[-99.1642607,19.4302934]}},{"type":"Feature","properties":{"addr:street":"Isabel la Catolica","amenity":"school","name":"Escuela Primaria Francisco Giner de los R\u00edos"},"geometry":{"type":"Point","coordinates":[-99.1388853,19.4119987]}},{"type":"Feature","properties":{"addr:housenumber":"95","addr:street":"Calle Londres","amenity":"school","name":"celcum language school"},"geometry":{"type":"Point","coordinates":[-99.1631614,19.4259476]}},{"type":"Feature","properties":{"amenity":"school"},"geometry":{"type":"Point","coordinates":[-99.1568078,19.4273793]}},{"type":"Feature","properties":{"addr:city":"CDMX","addr:housenumber":"1506","addr:street":"5 de Febrero","amenity":"school","name":"Escuela Primaria Jonas Edward Salk","operator":"SEP","operator:type":"public"},"geometry":{"type":"Point","coordinates":[-99.1408883,19.3847587]}},{"type":"Feature","properties":{"amenity":"school","name":"Colegio Merino"},"geometry":{"type":"Point","coordinates":[-99.1531914,19.3728674]}},{"type":"Feature","properties":{"amenity":"school","name":"Montessori\u2019s World Preschool And Elementary School"},"geometry":{"type":"Point","coordinates":[-99.1592304,19.4191767]}}]}